IRIDIUM 135             
1 43070U 17083A   26185.59369399  .00000118  00000+0  35199-4 0  9998
2 43070  86.3983 314.7383 0002201  93.0417 267.1031 14.34218311446643
IRIDIUM 138             
1 43071U 17083B   26185.61906398  .00000111  00000+0  32645-4 0  9994
2 43071  86.3995 314.4258 0002140  88.2714 271.8727 14.34218340446638
IRIDIUM 116             
1 43072U 17083C   26185.65711965  .00000142  00000+0  43813-4 0  9996
2 43072  86.3982 314.6976 0002319 100.6671 259.4786 14.34218554446671
IRIDIUM 130             
1 43073U 17083D   26185.62540616  .00000111  00000+0  32624-4 0  9991
2 43073  86.3989 314.9877 0002090  98.9990 261.1443 14.34218114446617
IRIDIUM 151             
1 43074U 17083E   26185.60003663  .00000071  00000+0  18222-4 0  9999
2 43074  86.3984 314.7795 0002228  94.1643 265.9807 14.34218022446632
IRIDIUM 134             
1 43075U 17083F   26185.63809086  .00000276  00000+0  91486-4 0  9996
2 43075  86.3985 314.7716 0002137  94.3353 265.8087 14.34218265446601
IRIDIUM 137             
1 43076U 17083G   26185.65077778  .00000095  00000+0  26997-4 0  9998
2 43076  86.3984 314.8595 0002610  98.2275 261.9217 14.34218250446672
IRIDIUM 141             
1 43077U 17083H   26185.64443483  .00000060  00000+0  14228-4 0  9994
2 43077  86.3980 314.6918 0002185  91.9032 268.2414 14.34217899446671
IRIDIUM 153             
1 43078U 17083J   26185.52684460  .00000350  00000+0  11795-3 0  9991
2 43078  86.3964 283.2215 0002133  92.9528 267.1912 14.34217991447764
IRIDIUM 131             
1 43079U 17083K   26185.35267547  .00000082  00000+0  22055-4 0  9990
2 43079  86.3988 315.0009 0002230  93.4492 266.6959 14.34218106446561
IRIDIUM 144             
1 43249U 18030A   26185.53318785  .00000129  00000+0  38982-4 0  9991
2 43249  86.3964 283.1477 0002290  97.9112 262.2344 14.34217820432626
IRIDIUM 149             
1 43250U 18030B   26185.19068791  .00000089  00000+0  24729-4 0  9993
2 43250  86.3962 283.2576 0002272  93.3665 266.7791 14.34218074432593
IRIDIUM 157             
1 43251U 18030C   26185.55855817  .00000108  00000+0  31408-4 0  9991
2 43251  86.3965 283.1574 0002250  94.8953 265.2500 14.34218098432628
IRIDIUM 140             
1 43252U 18030D   26185.50781713  .00000131  00000+0  39648-4 0  9990
2 43252  86.3965 283.1911 0002218  95.6153 264.5296 14.34218287432678
IRIDIUM 145             
1 43253U 18030E   26185.56489189  .00000356  00000+0  11988-3 0  9994
2 43253  86.3966 283.1396 0002337 103.9450 256.2006 14.34217314432613
IRIDIUM 146             
1 43254U 18030F   26185.54587276  .00000081  00000+0  21852-4 0  9996
2 43254  86.3964 283.1596 0002303  98.2613 261.8844 14.34218199432629
IRIDIUM 148             
1 43255U 18030G   26185.51416028  .00000110  00000+0  32215-4 0  9998
2 43255  86.3965 283.2161 0002401  95.1443 265.0027 14.34218228432651
IRIDIUM 142             
1 43256U 18030H   26185.55221545  .00000366  00000+0  12348-3 0  9998
2 43256  86.3963 283.0887 0002326  99.5169 260.6290 14.34218108432629
IRIDIUM 150             
1 43257U 18030J   26185.52050217  .00000182  00000+0  57914-4 0  9997
2 43257  86.3967 283.2190 0002206  96.0982 264.0465 14.34218597432641
IRIDIUM 143             
1 43258U 18030K   26185.50147287 -.00000016  00000+0 -12636-4 0  9990
2 43258  86.3969 283.3200 0002277  98.3411 261.8043 14.34216484432579
IRIDIUM 161             
1 43478U 18047C   26185.43237154  .00000365  00000+0  10240-3 0  9990
2 43478  86.4473  81.2605 0002409  79.5132 280.6341 14.43282122427628
IRIDIUM 152             
1 43479U 18047D   26185.47420133  .00000372  00000+0  12562-3 0  9993
2 43479  86.3949  81.1043 0002212  81.7272 278.4174 14.34217435424961
IRIDIUM 147             
1 43480U 18047E   26185.41076119  .00000279  00000+0  92565-4 0  9998
2 43480  86.3946  81.1356 0002302  86.3202 273.8257 14.34216834424953
IRIDIUM 110             
1 43481U 18047F   26185.41710961  .00000028  00000+0  31056-5 0  9990
2 43481  86.3953  81.2259 0002328  76.0453 284.1001 14.34217730424944
IRIDIUM 162             
1 43482U 18047G   26185.42606933  .00000443  00000+0  12582-3 0  9997
2 43482  86.4472  81.1538 0002254  83.7485 276.3973 14.43281180427617
IRIDIUM 160             
1 43569U 18061A   26185.36294504  .00000036  00000+0  57897-5 0  9997
2 43569  86.3947  49.6143 0002245  85.7799 274.3653 14.34217871415830
IRIDIUM 166             
1 43570U 18061B   26185.31854675  .00000122  00000+0  36366-4 0  9998
2 43570  86.3945  49.5831 0002226  89.1325 271.0126 14.34218236415852
IRIDIUM 158             
1 43571U 18061C   26185.35660130  .00000208  00000+0  67201-4 0  9991
2 43571  86.3945  49.5771 0002138  85.2890 274.8550 14.34218966415821
IRIDIUM 165             
1 43572U 18061D   26185.38197238  .00000069  00000+0  17601-4 0  9993
2 43572  86.3947  49.6133 0002176  89.9813 270.1632 14.34218107415855
IRIDIUM 155             
1 43573U 18061E   26185.34391408  .00000226  00000+0  73729-4 0  9993
2 43573  86.3941  49.4971 0002060  86.8473 273.2959 14.34219697415815
